[{"COMMENT":"GENERATED VIA SPACETRACK.ORG API","ORIGINATOR":"18 SPCS","NORAD_CAT_ID":"43477","OBJECT_NAME":"GRACE-FO 2","OBJECT_TYPE":"PAYLOAD","CLASSIFICATION_TYPE":"U","INTLDES":"18047B","EPOCH":"2023-09-19 17:57:18","EPOCH_MICROSECONDS":"723168","MEAN_MOTION":"15.26819655","ECCENTRICITY":"0.0015494","INCLINATION":"88.9901","RA_OF_ASC_NODE":"336.3321","ARG_OF_PERICENTER":"43.0659","MEAN_ANOMALY":"317.1799","EPHEMERIS_TYPE":"0","ELEMENT_SET_NO":"999","REV_AT_EPOCH":"29642","BSTAR":"0.00018734","MEAN_MOTION_DOT":"0.00004979","MEAN_MOTION_DDOT":"0","FILE":"4010913","TLE_LINE0":"0 GRACE-FO 2","TLE_LINE1":"1 43477U 18047B   23262.74813337  .00004979  00000-0  18734-3 0  9991","TLE_LINE2":"2 43477  88.9901 336.3321 0015494  43.0659 317.1799 15.26819655296421","OBJECT_ID":"2018-047B","OBJECT_NUMBER":"43477","SEMIMAJOR_AXIS":"6863.464","PERIOD":"94.314","APOGEE":"495.963","PERIGEE":"474.695","DECAYED":"0"},{"COMMENT":"GENERATED VIA SPACETRACK.ORG API","ORIGINATOR":"18 SPCS","NORAD_CAT_ID":"43477","OBJECT_NAME":"GRACE-FO 2","OBJECT_TYPE":"PAYLOAD","CLASSIFICATION_TYPE":"U","INTLDES":"18047B","EPOCH":"2023-09-20 12:49:51","EPOCH_MICROSECONDS":"800448","MEAN_MOTION":"15.2682759","ECCENTRICITY":"0.0015369","INCLINATION":"88.9898","RA_OF_ASC_NODE":"336.2253","ARG_OF_PERICENTER":"40.4383","MEAN_ANOMALY":"319.8005","EPHEMERIS_TYPE":"0","ELEMENT_SET_NO":"999","REV_AT_EPOCH":"29654","BSTAR":"0.00017734","MEAN_MOTION_DOT":"0.00004716","MEAN_MOTION_DDOT":"0","FILE":"4011740","TLE_LINE0":"0 GRACE-FO 2","TLE_LINE1":"1 43477U 18047B   23263.53462732  .00004716  00000-0  17734-3 0  9996","TLE_LINE2":"2 43477  88.9898 336.2253 0015369  40.4383 319.8005 15.26827590296544","OBJECT_ID":"2018-047B","OBJECT_NUMBER":"43477","SEMIMAJOR_AXIS":"6863.440","PERIOD":"94.313","APOGEE":"495.853","PERIGEE":"474.757","DECAYED":"0"},{"COMMENT":"GENERATED VIA SPACETRACK.ORG API","ORIGINATOR":"18 SPCS","NORAD_CAT_ID":"43477","OBJECT_NAME":"GRACE-FO 2","OBJECT_TYPE":"PAYLOAD","CLASSIFICATION_TYPE":"U","INTLDES":"18047B","EPOCH":"2023-09-20 20:41:45","EPOCH_MICROSECONDS":"494304","MEAN_MOTION":"15.26829471","ECCENTRICITY":"0.0015319","INCLINATION":"88.9898","RA_OF_ASC_NODE":"336.1807","ARG_OF_PERICENTER":"39.2744","MEAN_ANOMALY":"320.9613","EPHEMERIS_TYPE":"0","ELEMENT_SET_NO":"999","REV_AT_EPOCH":"29659","BSTAR":"0.00015685","MEAN_MOTION_DOT":"0.00004175","MEAN_MOTION_DDOT":"0","FILE":"4012054","TLE_LINE0":"0 GRACE-FO 2","TLE_LINE1":"1 43477U 18047B   23263.86233211  .00004175  00000-0  15685-3 0  9992","TLE_LINE2":"2 43477  88.9898 336.1807 0015319  39.2744 320.9613 15.26829471296593","OBJECT_ID":"2018-047B","OBJECT_NUMBER":"43477","SEMIMAJOR_AXIS":"6863.434","PERIOD":"94.313","APOGEE":"495.813","PERIGEE":"474.785","DECAYED":"0"},{"COMMENT":"GENERATED VIA SPACETRACK.ORG API","ORIGINATOR":"18 SPCS","NORAD_CAT_ID":"43477","OBJECT_NAME":"GRACE-FO 2","OBJECT_TYPE":"PAYLOAD","CLASSIFICATION_TYPE":"U","INTLDES":"18047B","EPOCH":"2023-09-21 01:24:53","EPOCH_MICROSECONDS":"681760","MEAN_MOTION":"15.26831434","ECCENTRICITY":"0.0015281","INCLINATION":"88.9897","RA_OF_ASC_NODE":"336.154","ARG_OF_PERICENTER":"38.6187","MEAN_ANOMALY":"321.6152","EPHEMERIS_TYPE":"0","ELEMENT_SET_NO":"999","REV_AT_EPOCH":"29662","BSTAR":"0.00016111","MEAN_MOTION_DOT":"0.00004287","MEAN_MOTION_DDOT":"0","FILE":"4012108","TLE_LINE0":"0 GRACE-FO 2","TLE_LINE1":"1 43477U 18047B   23264.05895465  .00004287  00000-0  16111-3 0  9998","TLE_LINE2":"2 43477  88.9897 336.1540 0015281  38.6187 321.6152 15.26831434296620","OBJECT_ID":"2018-047B","OBJECT_NUMBER":"43477","SEMIMAJOR_AXIS":"6863.428","PERIOD":"94.313","APOGEE":"495.781","PERIGEE":"474.805","DECAYED":"0"},{"COMMENT":"GENERATED VIA SPACETRACK.ORG API","ORIGINATOR":"18 SPCS","NORAD_CAT_ID":"43477","OBJECT_NAME":"GRACE-FO 2","OBJECT_TYPE":"PAYLOAD","CLASSIFICATION_TYPE":"U","INTLDES":"18047B","EPOCH":"2023-09-21 12:25:32","EPOCH_MICROSECONDS":"716992","MEAN_MOTION":"15.26835187","ECCENTRICITY":"0.0015202","INCLINATION":"88.9898","RA_OF_ASC_NODE":"336.0917","ARG_OF_PERICENTER":"37.0561","MEAN_ANOMALY":"323.1734","EPHEMERIS_TYPE":"0","ELEMENT_SET_NO":"999","REV_AT_EPOCH":"29669","BSTAR":"0.00014769","MEAN_MOTION_DOT":"0.00003933","MEAN_MOTION_DDOT":"0","FILE":"4012680","TLE_LINE0":"0 GRACE-FO 2","TLE_LINE1":"1 43477U 18047B   23264.51773978  .00003933  00000-0  14769-3 0  9997","TLE_LINE2":"2 43477  88.9898 336.0917 0015202  37.0561 323.1734 15.26835187296699","OBJECT_ID":"2018-047B","OBJECT_NUMBER":"43477","SEMIMAJOR_AXIS":"6863.417","PERIOD":"94.313","APOGEE":"495.716","PERIGEE":"474.848","DECAYED":"0"},{"COMMENT":"GENERATED VIA SPACETRACK.ORG API","ORIGINATOR":"18 SPCS","NORAD_CAT_ID":"43477","OBJECT_NAME":"GRACE-FO 2","OBJECT_TYPE":"PAYLOAD","CLASSIFICATION_TYPE":"U","INTLDES":"18047B","EPOCH":"2023-09-21 21:51:48","EPOCH_MICROSECONDS":"962304","MEAN_MOTION":"15.26838709","ECCENTRICITY":"0.001514","INCLINATION":"88.9897","RA_OF_ASC_NODE":"336.0382","ARG_OF_PERICENTER":"35.7226","MEAN_ANOMALY":"324.5033","EPHEMERIS_TYPE":"0","ELEMENT_SET_NO":"999","REV_AT_EPOCH":"29675","BSTAR":"0.00014836","MEAN_MOTION_DOT":"0.00003951","MEAN_MOTION_DDOT":"0","FILE":"4012956","TLE_LINE0":"0 GRACE-FO 2","TLE_LINE1":"1 43477U 18047B   23264.91098336  .00003951  00000-0  14836-3 0  9994","TLE_LINE2":"2 43477  88.9897 336.0382 0015140  35.7226 324.5033 15.26838709296755","OBJECT_ID":"2018-047B","OBJECT_NUMBER":"43477","SEMIMAJOR_AXIS":"6863.407","PERIOD":"94.313","APOGEE":"495.663","PERIGEE":"474.880","DECAYED":"0"},{"COMMENT":"GENERATED VIA SPACETRACK.ORG API","ORIGINATOR":"18 SPCS","NORAD_CAT_ID":"43477","OBJECT_NAME":"GRACE-FO 2","OBJECT_TYPE":"PAYLOAD","CLASSIFICATION_TYPE":"U","INTLDES":"18047B","EPOCH":"2023-09-22 02:34:57","EPOCH_MICROSECONDS":"61632","MEAN_MOTION":"15.26840427","ECCENTRICITY":"0.0015107","INCLINATION":"88.9897","RA_OF_ASC_NODE":"336.0115","ARG_OF_PERICENTER":"35.0585","MEAN_ANOMALY":"325.1655","EPHEMERIS_TYPE":"0","ELEMENT_SET_NO":"999","REV_AT_EPOCH":"29678","BSTAR":"0.00014929","MEAN_MOTION_DOT":"0.00003976","MEAN_MOTION_DDOT":"0","FILE":"4013072","TLE_LINE0":"0 GRACE-FO 2","TLE_LINE1":"1 43477U 18047B   23265.10760488  .00003976  00000-0  14929-3 0  9990","TLE_LINE2":"2 43477  88.9897 336.0115 0015107  35.0585 325.1655 15.26840427296783","OBJECT_ID":"2018-047B","OBJECT_NUMBER":"43477","SEMIMAJOR_AXIS":"6863.402","PERIOD":"94.312","APOGEE":"495.635","PERIGEE":"474.898","DECAYED":"0"},{"COMMENT":"GENERATED VIA SPACETRACK.ORG API","ORIGINATOR":"18 SPCS","NORAD_CAT_ID":"43477","OBJECT_NAME":"GRACE-FO 2","OBJECT_TYPE":"PAYLOAD","CLASSIFICATION_TYPE":"U","INTLDES":"18047B","EPOCH":"2023-09-22 13:35:35","EPOCH_MICROSECONDS":"908512","MEAN_MOTION":"15.26844115","ECCENTRICITY":"0.0015039","INCLINATION":"88.9898","RA_OF_ASC_NODE":"335.9492","ARG_OF_PERICENTER":"33.4378","MEAN_ANOMALY":"326.7817","EPHEMERIS_TYPE":"0","ELEMENT_SET_NO":"999","REV_AT_EPOCH":"29685","BSTAR":"0.00015279","MEAN_MOTION_DOT":"0.00004069","MEAN_MOTION_DDOT":"0","FILE":"4013584","TLE_LINE0":"0 GRACE-FO 2","TLE_LINE1":"1 43477U 18047B   23265.56638783  .00004069  00000-0  15279-3 0  9995","TLE_LINE2":"2 43477  88.9898 335.9492 0015039  33.4378 326.7817 15.26844115296859","OBJECT_ID":"2018-047B","OBJECT_NUMBER":"43477","SEMIMAJOR_AXIS":"6863.390","PERIOD":"94.312","APOGEE":"495.577","PERIGEE":"474.934","DECAYED":"0"},{"COMMENT":"GENERATED VIA SPACETRACK.ORG API","ORIGINATOR":"18 SPCS","NORAD_CAT_ID":"43477","OBJECT_NAME":"GRACE-FO 2","OBJECT_TYPE":"PAYLOAD","CLASSIFICATION_TYPE":"U","INTLDES":"18047B","EPOCH":"2023-09-22 21:27:29","EPOCH_MICROSECONDS":"300832","MEAN_MOTION":"15.26847281","ECCENTRICITY":"0.0014991","INCLINATION":"88.9898","RA_OF_ASC_NODE":"335.9047","ARG_OF_PERICENTER":"32.3078","MEAN_ANOMALY":"327.9086","EPHEMERIS_TYPE":"0","ELEMENT_SET_NO":"999","REV_AT_EPOCH":"29690","BSTAR":"0.00016438","MEAN_MOTION_DOT":"0.00004375","MEAN_MOTION_DDOT":"0","FILE":"4013859","TLE_LINE0":"0 GRACE-FO 2","TLE_LINE1":"1 43477U 18047B   23265.89408913  .00004375  00000-0  16438-3 0  9999","TLE_LINE2":"2 43477  88.9898 335.9047 0014991  32.3078 327.9086 15.26847281296900","OBJECT_ID":"2018-047B","OBJECT_NUMBER":"43477","SEMIMAJOR_AXIS":"6863.381","PERIOD":"94.312","APOGEE":"495.535","PERIGEE":"474.957","DECAYED":"0"},{"COMMENT":"GENERATED VIA SPACETRACK.ORG API","ORIGINATOR":"18 SPCS","NORAD_CAT_ID":"43477","OBJECT_NAME":"GRACE-FO 2","OBJECT_TYPE":"PAYLOAD","CLASSIFICATION_TYPE":"U","INTLDES":"18047B","EPOCH":"2023-09-23 11:36:53","EPOCH_MICROSECONDS":"297280","MEAN_MOTION":"15.26851522","ECCENTRICITY":"0.0014892","INCLINATION":"88.9898","RA_OF_ASC_NODE":"335.8245","ARG_OF_PERICENTER":"30.2808","MEAN_ANOMALY":"329.9299","EPHEMERIS_TYPE":"0","ELEMENT_SET_NO":"999","REV_AT_EPOCH":"29699","BSTAR":"0.00016015","MEAN_MOTION_DOT":"0.00004264","MEAN_MOTION_DDOT":"0","FILE":"4014297","TLE_LINE0":"0 GRACE-FO 2","TLE_LINE1":"1 43477U 18047B   23266.48395020  .00004264  00000-0  16015-3 0  9997","TLE_LINE2":"2 43477  88.9898 335.8245 0014892  30.2808 329.9299 15.26851522296997","OBJECT_ID":"2018-047B","OBJECT_NUMBER":"43477","SEMIMAJOR_AXIS":"6863.368","PERIOD":"94.312","APOGEE":"495.454","PERIGEE":"475.012","DECAYED":"0"}]